1 42893U 17042BW  20217.60718502  .00003237  00000-0  78644-4 0  9999
2 42893  96.8880  82.9661 0011964 136.7605 223.4584 15.41601460171531
1 42893U 17042BW  20217.86682631  .00003500  00000-0  84863-4 0  9993
2 42893  96.8880  83.2111 0012002 135.9053 224.3154 15.41604068171571
1 42893U 17042BW  20218.38610683  .00004920  00000-0  11853-3 0  9994
2 42893  96.8877  83.7011 0012045 134.2525 225.9714 15.41612105171653
1 42893U 17042BW  20218.84047560  .00005527  00000-0  13288-3 0  9991
2 42893  96.8876  84.1299 0012093 132.7647 227.4621 15.41618205171725
1 42893U 17042BW  20219.16502403  .00005028  00000-0  12105-3 0  9992
2 42893  96.8875  84.4362 0012113 131.7007 228.5279 15.41621012171776
1 42893U 17042BW  20219.35975297  .00004837  00000-0  11651-3 0  9990
2 42893  96.8875  84.6200 0012145 131.0744 229.1555 15.41622547171807
1 42893U 17042BW  20219.87902904  .00004303  00000-0  10384-3 0  9992
2 42893  96.8874  85.1101 0012181 129.4100 230.8228 15.41626525171883
1 42893U 17042BW  20220.39830424  .00003593  00000-0  86995-4 0  9990
2 42893  96.8874  85.6002 0012220 127.7385 232.4972 15.41628887171964
1 42893U 17042BW  20220.52812279  .00003439  00000-0  83356-4 0  9990
2 42893  96.8874  85.7227 0012221 127.3313 232.9050 15.41629587171984
1 42893U 17042BW  20220.85266896  .00003006  00000-0  73079-4 0  9995
2 42893  96.8874  86.0289 0012268 126.3458 233.8925 15.41630930172038
1 42893U 17042BW  20221.43684923  .00004353  00000-0  10497-3 0  9995
2 42893  96.8874  86.5803 0012315 124.4189 235.8225 15.41638999172126
1 42893U 17042BW  20221.56666679  .00004462  00000-0  10754-3 0  9994
2 42893  96.8873  86.7028 0012319 123.9988 236.2433 15.41640483172140
1 42893U 17042BW  20221.89120997  .00005162  00000-0  12411-3 0  9998
2 42893  96.8874  87.0091 0012334 122.8873 237.3564 15.41645237172197
1 42893U 17042BW  20222.54029601  .00004591  00000-0  11057-3 0  9991
2 42893  96.8874  87.6217 0012377 120.8332 239.4136 15.41649320172294
1 42893U 17042BW  20222.86483832  .00004162  00000-0  10041-3 0  9992
2 42893  96.8875  87.9280 0012399 119.8193 240.4290 15.41650993172342
1 42893U 17042BW  20223.31919668  .00003210  00000-0  77864-4 0  9994
2 42893  96.8875  88.3568 0012430 118.4014 241.8489 15.41652546172418
1 42893U 17042BW  20223.90337085  .00002793  00000-0  67975-4 0  9993
2 42893  96.8875  88.9082 0012463 116.5318 243.7209 15.41655294172501
1 42893U 17042BW  20224.16300346  .00002476  00000-0  60452-4 0  9993
2 42893  96.8875  89.1533 0012472 115.7400 244.5138 15.41656010172549
1 42893U 17042BW  20224.87699197  .00002442  00000-0  59651-4 0  9998
2 42893  96.8876  89.8272 0012514 113.5145 246.7420 15.41659618172653
1 42893U 17042BW  20225.39625338  .00003547  00000-0  85788-4 0  9999
2 42893  96.8876  90.3174 0012552 111.8332 248.4253 15.41666401172732
1 42893U 17042BW  20225.59097607  .00004021  00000-0  97009-4 0  9990
2 42893  96.8876  90.5012 0012552 111.2703 248.9887 15.41668911172760
1 42893U 17042BW  20225.85060571  .00004547  00000-0  10943-3 0  9993
2 42893  96.8877  90.7462 0012568 110.4820 249.7779 15.41672468172806
1 42893U 17042BW  20226.17514286  .00004190  00000-0  10097-3 0  9990
2 42893  96.8876  91.0525 0012588 109.4499 250.8110 15.41674403172859
1 42893U 17042BW  20226.69440177  .00003748  00000-0  90504-4 0  9994
2 42893  96.8876  91.5426 0012622 107.8097 252.4529 15.41677231172932
1 42893U 17042BW  20226.88912336  .00003916  00000-0  94492-4 0  9993
2 42893  96.8877  91.7264 0012626 107.1481 253.1151 15.41679108172966
1 42893U 17042BW  20227.53819503  .00002851  00000-0  69270-4 0  9991
2 42893  96.8876  92.3390 0012645 105.1393 255.1255 15.41680966173066
1 42893U 17042BW  20227.73291638  .00002394  00000-0  58466-4 0  9993
2 42893  96.8875  92.5227 0012648 104.4636 255.8017 15.41681145173097
1 42893U 17042BW  20228.57670764  .00002179  00000-0  53382-4 0  9990
2 42893  96.8872  93.3190 0012677 101.8813 258.3858 15.41684258173226
1 42893U 17042BW  20228.77142839  .00002198  00000-0  53819-4 0  9995
2 42893  96.8872  93.5028 0012681 101.2805 258.9869 15.41685130173259
1 42893U 17042BW  20229.35558985  .00002165  00000-0  53026-4 0  9997
2 42893  96.8870  94.0541 0012699  99.5148 260.7536 15.41687575173348
1 42893U 17042BW  20229.80993721  .00002134  00000-0  52285-4 0  9990
2 42893  96.8869  94.4829 0012711  98.1177 262.1514 15.41689344173417
1 42893U 17042BW  20229.87484389  .00002148  00000-0  52624-4 0  9994
2 42893  96.8869  94.5442 0012715  97.9317 262.3375 15.41689661173426
1 42893U 17042BW  20230.52391045  .00002112  00000-0  51774-4 0  9990
2 42893  96.8866  95.1567 0012734  95.8970 264.3730 15.41692138173522
1 42893U 17042BW  20230.84844319  .00002136  00000-0  52325-4 0  9991
2 42893  96.8866  95.4629 0012749  94.9154 265.3550 15.41693605173570
1 42893U 17042BW  20231.04316268  .00002156  00000-0  52810-4 0  9992
2 42893  96.8865  95.6467 0012749  94.3226 265.9479 15.41694552173607
1 42893U 17042BW  20231.56241422  .00002188  00000-0  53554-4 0  9999
2 42893  96.8863  96.1367 0012753  92.7451 267.5257 15.41696821173688
1 42893U 17042BW  20231.88694601  .00002143  00000-0  52490-4 0  9994
2 42893  96.8862  96.4429 0012759  91.7838 268.4872 15.41698046173733
1 42893U 17042BW  20232.08166489  .00002210  00000-0  54075-4 0  9991
2 42893  96.8861  96.6267 0012760  91.1601 269.1109 15.41699168173768
1 42893U 17042BW  20232.60091166  .00004057  00000-0  97720-4 0  9993
2 42893  96.8860  97.1167 0012766  89.3595 270.9116 15.41708568173841
1 42893U 17042BW  20232.86053547  .00004553  00000-0  10942-3 0  9993
2 42893  96.8859  97.3617 0012771  88.6550 271.6161 15.41710558173884
1 42893U 17042BW  20233.05525286  .00004732  00000-0  11365-3 0  9998
2 42893  96.8858  97.5454 0012772  88.0555 272.2156 15.41712580173916
1 42893U 17042BW  20233.63940476  .00003969  00000-0  95620-4 0  9992
2 42893  96.8856  98.0966 0012766  86.2045 274.0662 15.41714958174009
1 42893U 17042BW  20234.09374391  .00004186  00000-0  10073-3 0  9990
2 42893  96.8856  98.5253 0012766  84.8040 275.4665 15.41718712174079
1 42893U 17042BW  20234.54808318  .00002732  00000-0  66378-4 0  9996
2 42893  96.8856  98.9540 0012750  83.3627 276.9072 15.41717625174148
1 42893U 17042BW  20234.87261040  .00002268  00000-0  55421-4 0  9998
2 42893  96.8856  99.2603 0012761  82.3410 277.9287 15.41718630174194
1 42893U 17042BW  20235.13223195  .00002862  00000-0  69439-4 0  9991
2 42893  96.8856  99.5053 0012760  81.5609 278.7085 15.41721266174235
1 42893U 17042BW  20235.52166272  .00002995  00000-0  72583-4 0  9997
2 42893  96.8854  99.8728 0012762  80.3325 279.9364 15.41724654174292
1 42893U 17042BW  20235.84618716  .00004032  00000-0  97059-4 0  9996
2 42893  96.8855 100.1791 0012763  79.3401 280.9284 15.41730008174342
1 42893U 17042BW  20236.36542695  .00004549  00000-0  10925-3 0  9995
2 42893  96.8853 100.6690 0012758  77.7993 282.4683 15.41734209174421
1 42893U 17042BW  20236.56014152  .00004229  00000-0  10170-3 0  9996
2 42893  96.8853 100.8528 0012751  77.1644 283.1028 15.41734982174455
1 42893U 17042BW  20236.81976066  .00004154  00000-0  99915-4 0  9997
2 42893  96.8854 101.0977 0012742  76.4020 283.8646 15.41736708174492
1 42893U 17042BW  20237.40390278  .00003428  00000-0  82780-4 0  9993
2 42893  96.8855 101.6490 0012712  74.5714 285.6938 15.41739174174589
1 42893U 17042BW  20237.53371222  .00002933  00000-0  71086-4 0  9992
2 42893  96.8855 101.7715 0012704  74.1668 286.0980 15.41738733174600
1 42893U 17042BW  20237.85823513  .00002682  00000-0  65162-4 0  9991
2 42893  96.8855 102.0779 0012715  73.1176 287.1465 15.41740223174651
1 42893U 17042BW  20238.57218451  .00002427  00000-0  59132-4 0  9997
2 42893  96.8855 102.7516 0012675  70.8993 289.3626 15.41742958174765
1 42893U 17042BW  20238.89670609  .00002507  00000-0  61013-4 0  9999
2 42893  96.8855 103.0579 0012662  69.8904 290.3706 15.41744930174813
1 42893U 17042BW  20239.35103487  .00003085  00000-0  74636-4 0  9993
2 42893  96.8855 103.4867 0012648  68.3704 291.8890 15.41749446174887
1 42893U 17042BW  20239.67555415  .00003819  00000-0  91966-4 0  9990
2 42893  96.8855 103.7929 0012621  67.2821 292.9760 15.41754197174931
1 42893U 17042BW  20239.80536217  .00004370  00000-0  10496-3 0  9995
2 42893  96.8856 103.9155 0012629  67.0227 293.2352 15.41755649174957
1 42893U 17042BW  20240.25968886  .00004676  00000-0  11217-3 0  9998
2 42893  96.8857 104.3442 0012605  65.5547 294.7015 15.41759930175022
1 42893U 17042BW  20240.90872592  .00003969  00000-0  95480-4 0  9997
2 42893  96.8856 104.9568 0012581  63.5965 296.6573 15.41763062175123
1 42893U 17042BW  20241.10343652  .00003982  00000-0  95779-4 0  9996
2 42893  96.8856 105.1406 0012574  62.9933 297.2598 15.41764711175156
1 42893U 17042BW  20241.36305097  .00003261  00000-0  78762-4 0  9998
2 42893  96.8855 105.3856 0012567  62.2126 298.0395 15.41764476175191
1 42893U 17042BW  20241.81737416  .00003854  00000-0  92731-4 0  9992
2 42893  96.8854 105.8142 0012533  60.7510 299.4990 15.41769803175269
1 42893U 17042BW  20242.14189072  .00003926  00000-0  94443-4 0  9990
2 42893  96.8854 106.1205 0012529  59.8009 300.4478 15.41771781175318
1 42893U 17042BW  20242.40150165  .00005351  00000-0  12801-3 0  9991
2 42893  96.8853 106.3656 0012498  58.9619 301.2855 15.41777939175354
1 42893U 17042BW  20242.85582072  .00005894  00000-0  14079-3 0  9997
2 42893  96.8852 106.7942 0012463  57.4876 302.7574 15.41784124175422
1 42893U 17042BW  20243.37504138  .00005894  00000-0  14075-3 0  9998
2 42893  96.8851 107.2841 0012443  55.9184 304.3243 15.41789715175509
1 42893U 17042BW  20243.56974862  .00005561  00000-0  13290-3 0  9993
2 42893  96.8851 107.4678 0012430  55.2916 304.9502 15.41791418175531
1 42893U 17042BW  20243.82935827  .00004995  00000-0  11957-3 0  9998
2 42893  96.8849 107.7128 0012413  54.4418 305.7986 15.41792701175575
1 42893U 17042BW  20244.41347803  .00004819  00000-0  11541-3 0  9999
2 42893  96.8847 108.2639 0012373  52.6034 307.6338 15.41798116175663
